[{"OBJECT_NAME":"NOAA 17","OBJECT_ID":"2002-032A","EPOCH":"2026-03-22T05:36:37.890432","MEAN_MOTION":14.26196244,"ECCENTRICITY":0.00106206,"INCLINATION":98.8564,"RA_OF_ASC_NODE":45.9978,"ARG_OF_PERICENTER":241.5823,"MEAN_ANOMALY":118.4287,"EPHEMERIS_TYPE":0,"CLASSIFICATION_TYPE":"U","NORAD_CAT_ID":27453,"ELEMENT_SET_NO":999,"REV_AT_EPOCH":23459,"BSTAR":0.00011273978,"MEAN_MOTION_DOT":2.24e-6,"MEAN_MOTION_DDOT":0},{"OBJECT_NAME":"NOAA 18","OBJECT_ID":"2005-018A","EPOCH":"2026-03-22T05:03:13.447584","MEAN_MOTION":14.13713178,"ECCENTRICITY":0.00148906,"INCLINATION":98.8139,"RA_OF_ASC_NODE":162.1415,"ARG_OF_PERICENTER":41.9371,"MEAN_ANOMALY":318.2939,"EPHEMERIS_TYPE":0,"CLASSIFICATION_TYPE":"U","NORAD_CAT_ID":28654,"ELEMENT_SET_NO":999,"REV_AT_EPOCH":7402,"BSTAR":4.8541947e-5,"MEAN_MOTION_DOT":4.8e-7,"MEAN_MOTION_DDOT":0},{"OBJECT_NAME":"NOAA 19","OBJECT_ID":"2009-005A","EPOCH":"2026-03-22T04:39:19.982592","MEAN_MOTION":14.13459138,"ECCENTRICITY":0.00126775,"INCLINATION":98.9583,"RA_OF_ASC_NODE":151.9847,"ARG_OF_PERICENTER":276.5899,"MEAN_ANOMALY":83.383,"EPHEMERIS_TYPE":0,"CLASSIFICATION_TYPE":"U","NORAD_CAT_ID":33591,"ELEMENT_SET_NO":999,"REV_AT_EPOCH":88219,"BSTAR":5.4799808e-5,"MEAN_MOTION_DOT":5.8e-7,"MEAN_MOTION_DDOT":0},{"OBJECT_NAME":"SUOMI NPP","OBJECT_ID":"2011-061A","EPOCH":"2026-03-22T05:15:34.712064","MEAN_MOTION":14.19496628,"ECCENTRICITY":0.00013055,"INCLINATION":98.7885,"RA_OF_ASC_NODE":22.7233,"ARG_OF_PERICENTER":175.9939,"MEAN_ANOMALY":184.1248,"EPHEMERIS_TYPE":0,"CLASSIFICATION_TYPE":"U","NORAD_CAT_ID":37849,"ELEMENT_SET_NO":999,"REV_AT_EPOCH":74610,"BSTAR":7.2807131e-5,"MEAN_MOTION_DOT":1.09e-6,"MEAN_MOTION_DDOT":0},{"OBJECT_NAME":"NOAA 20 (JPSS-1)","OBJECT_ID":"2017-073A","EPOCH":"2026-03-22T05:36:38.001024","MEAN_MOTION":14.19539248,"ECCENTRICITY":0.0001691,"INCLINATION":98.7707,"RA_OF_ASC_NODE":21.4972,"ARG_OF_PERICENTER":120.8609,"MEAN_ANOMALY":239.2733,"EPHEMERIS_TYPE":0,"CLASSIFICATION_TYPE":"U","NORAD_CAT_ID":43013,"ELEMENT_SET_NO":999,"REV_AT_EPOCH":43213,"BSTAR":6.4317161e-5,"MEAN_MOTION_DOT":9.1e-7,"MEAN_MOTION_DDOT":0},{"OBJECT_NAME":"NOAA 21 (JPSS-2)","OBJECT_ID":"2022-150A","EPOCH":"2026-03-22T06:26:24.577728","MEAN_MOTION":14.19555323,"ECCENTRICITY":0.00027878,"INCLINATION":98.7569,"RA_OF_ASC_NODE":21.3911,"ARG_OF_PERICENTER":84.5784,"MEAN_ANOMALY":275.5711,"EPHEMERIS_TYPE":0,"CLASSIFICATION_TYPE":"U","NORAD_CAT_ID":54234,"ELEMENT_SET_NO":999,"REV_AT_EPOCH":17421,"BSTAR":6.0004526e-5,"MEAN_MOTION_DOT":8.3e-7,"MEAN_MOTION_DDOT":0}]
