TLE2=2 27453  98.8564  45.9978 0010620 241.5823 118.4287 14.26196244234592
TLE2=2 33591  98.9583 151.9847 0012677 276.5899  83.3830 14.13459138882191
TLE2=2 43013  98.7707  21.4972 0001691 120.8609 239.2733 14.19539248432137
TLE2=2 54234  98.7569  21.3911 0002787  84.5784 275.5711 14.19555323174212
TLE2=2 37849  98.7885  22.7233 0001305 175.9939 184.1248 14.19496628746105
TLE2=2 28654  98.8139 162.1415 0014890  41.9371 318.2939 14.13713178 74026
